[
    {
        "Altitude(m)": 704381.0449110738,
        "Argument of Periapsis(deg)": 0.007973084830638947,
        "Eccentricity": 0.0,
        "Inclination(deg)": 45.0,
        "Latitude(deg)": -5.797803753027917,
        "Longitude(deg)": -164.73622150043497,
        "Mean Anomaly(deg)": 188.07325165323653,
        "RAAN(deg)": 109.99247364097926,
        "Satellite Name": "Constellation 1 495",
        "Satellite Number": 495,
        "Semi-Major Axis(m)": 7083131.272910544,
        "Time(s)": 133
    },
    {
        "Altitude(m)": 704389.339242799,
        "Argument of Periapsis(deg)": 0.008033032836884352,
        "Eccentricity": 0.0,
        "Inclination(deg)": 45.0,
        "Latitude(deg)": -5.840782142218989,
        "Longitude(deg)": -164.69704116461457,
        "Mean Anomaly(deg)": 188.13395279348646,
        "RAAN(deg)": 109.99241705181367,
        "Satellite Name": "Constellation 1 495",
        "Satellite Number": 495,
        "Semi-Major Axis(m)": 7083131.272910544,
        "Time(s)": 134
    },
    {
        "Altitude(m)": 704397.6524986721,
        "Argument of Periapsis(deg)": 0.008092980843129758,
        "Eccentricity": 0.0,
        "Inclination(deg)": 45.0,
        "Latitude(deg)": -5.883757051281328,
        "Longitude(deg)": -164.65785431597448,
        "Mean Anomaly(deg)": 188.19465393373636,
        "RAAN(deg)": 109.99236046264812,
        "Satellite Name": "Constellation 1 495",
        "Satellite Number": 495,
        "Semi-Major Axis(m)": 7083131.272910544,
        "Time(s)": 135
    },
    {
        "Altitude(m)": 704405.9846598187,
        "Argument of Periapsis(deg)": 0.008152928849375162,
        "Eccentricity": 0.0,
        "Inclination(deg)": 45.0,
        "Latitude(deg)": -5.926728454479443,
        "Longitude(deg)": -164.61866090528122,
        "Mean Anomaly(deg)": 188.2553550739863,
        "RAAN(deg)": 109.99230387348256,
        "Satellite Name": "Constellation 1 495",
        "Satellite Number": 495,
        "Semi-Major Axis(m)": 7083131.272910544,
        "Time(s)": 136
    },
    {
        "Altitude(m)": 704414.3357072852,
        "Argument of Periapsis(deg)": 0.008212876855620568,
        "Eccentricity": 0.0,
        "Inclination(deg)": 45.0,
        "Latitude(deg)": -5.969696326065424,
        "Longitude(deg)": -164.57946088328762,
        "Mean Anomaly(deg)": 188.3160562142362,
        "RAAN(deg)": 109.99224728431697,
        "Satellite Name": "Constellation 1 495",
        "Satellite Number": 495,
        "Semi-Major Axis(m)": 7083131.272910544,
        "Time(s)": 137
    },
    {
        "Altitude(m)": 704422.7056220298,
        "Argument of Periapsis(deg)": 0.008272824861865974,
        "Eccentricity": 0.0,
        "Inclination(deg)": 45.0,
        "Latitude(deg)": -6.012660640279166,
        "Longitude(deg)": -164.54025420073214,
        "Mean Anomaly(deg)": 188.37675735448605,
        "RAAN(deg)": 109.99219069515141,
        "Satellite Name": "Constellation 1 495",
        "Satellite Number": 495,
        "Semi-Major Axis(m)": 7083131.272910544,
        "Time(s)": 138
    },
    {
        "Altitude(m)": 704431.0943849201,
        "Argument of Periapsis(deg)": 0.00833277286811138,
        "Eccentricity": 0.0,
        "Inclination(deg)": 45.0,
        "Latitude(deg)": -6.055621371348241,
        "Longitude(deg)": -164.50104080833907,
        "Mean Anomaly(deg)": 188.437458494736,
        "RAAN(deg)": 109.99213410598585,
        "Satellite Name": "Constellation 1 495",
        "Satellite Number": 495,
        "Semi-Major Axis(m)": 7083131.272910544,
        "Time(s)": 139
    },
    {
        "Altitude(m)": 704439.5019767366,
        "Argument of Periapsis(deg)": 0.008392720874356788,
        "Eccentricity": 0.0,
        "Inclination(deg)": 45.0,
        "Latitude(deg)": -6.09857849348753,
        "Longitude(deg)": -164.46182065681845,
        "Mean Anomaly(deg)": 188.4981596349859,
        "RAAN(deg)": 109.99207751682027,
        "Satellite Name": "Constellation 1 495",
        "Satellite Number": 495,
        "Semi-Major Axis(m)": 7083131.272910544,
        "Time(s)": 140
    },
    {
        "Altitude(m)": 704447.9283781721,
        "Argument of Periapsis(deg)": 0.008452668880602192,
        "Eccentricity": 0.0,
        "Inclination(deg)": 45.0,
        "Latitude(deg)": -6.141531980899174,
        "Longitude(deg)": -164.42259386496303,
        "Mean Anomaly(deg)": 188.55886077523576,
        "RAAN(deg)": 109.9920209276547,
        "Satellite Name": "Constellation 1 495",
        "Satellite Number": 495,
        "Semi-Major Axis(m)": 7083131.272910544,
        "Time(s)": 141
    },
    {
        "Altitude(m)": 704456.3735698279,
        "Argument of Periapsis(deg)": 0.008512616886847598,
        "Eccentricity": 0.0,
        "Inclination(deg)": 45.0,
        "Latitude(deg)": -6.184481807773438,
        "Longitude(deg)": -164.38336004725983,
        "Mean Anomaly(deg)": 188.6195619154856,
        "RAAN(deg)": 109.99196433848913,
        "Satellite Name": "Constellation 1 495",
        "Satellite Number": 495,
        "Semi-Major Axis(m)": 7083131.272910544,
        "Time(s)": 142
    },
    {
        "Altitude(m)": 704464.8375322239,
        "Argument of Periapsis(deg)": 0.008572564893093004,
        "Eccentricity": 0.0,
        "Inclination(deg)": 45.0,
        "Latitude(deg)": -6.227427948287148,
        "Longitude(deg)": -164.34411932247227,
        "Mean Anomaly(deg)": 188.6802630557356,
        "RAAN(deg)": 109.99190774932356,
        "Satellite Name": "Constellation 1 495",
        "Satellite Number": 495,
        "Semi-Major Axis(m)": 7083131.272910544,
        "Time(s)": 143
    },
    {
        "Altitude(m)": 704473.320245783,
        "Argument of Periapsis(deg)": 0.008632512899338408,
        "Eccentricity": 0.0,
        "Inclination(deg)": 45.0,
        "Latitude(deg)": -6.270370376604201,
        "Longitude(deg)": -164.3048716412524,
        "Mean Anomaly(deg)": 188.74096419598547,
        "RAAN(deg)": 109.991851160158,
        "Satellite Name": "Constellation 1 495",
        "Satellite Number": 495,
        "Semi-Major Axis(m)": 7083131.272910544,
        "Time(s)": 144
    },
    {
        "Altitude(m)": 704481.8216908493,
        "Argument of Periapsis(deg)": 0.008692460905583814,
        "Eccentricity": 0.0,
        "Inclination(deg)": 45.0,
        "Latitude(deg)": -6.313309066875821,
        "Longitude(deg)": -164.26561695423698,
        "Mean Anomaly(deg)": 188.80166533623537,
        "RAAN(deg)": 109.99179457099243,
        "Satellite Name": "Constellation 1 495",
        "Satellite Number": 495,
        "Semi-Major Axis(m)": 7083131.272910544,
        "Time(s)": 145
    },
    {
        "Altitude(m)": 704490.3418476707,
        "Argument of Periapsis(deg)": 0.00875240891182922,
        "Eccentricity": 0.0,
        "Inclination(deg)": 45.0,
        "Latitude(deg)": -6.356243993239947,
        "Longitude(deg)": -164.2263552120484,
        "Mean Anomaly(deg)": 188.86236647648525,
        "RAAN(deg)": 109.99173798182686,
        "Satellite Name": "Constellation 1 495",
        "Satellite Number": 495,
        "Semi-Major Axis(m)": 7083131.272910544,
        "Time(s)": 146
    },
    {
        "Altitude(m)": 704498.8806964183,
        "Argument of Periapsis(deg)": 0.008812356918074627,
        "Eccentricity": 0.0,
        "Inclination(deg)": 45.0,
        "Latitude(deg)": -6.399175129821648,
        "Longitude(deg)": -164.18708636529357,
        "Mean Anomaly(deg)": 188.92306761673518,
        "RAAN(deg)": 109.99168139266129,
        "Satellite Name": "Constellation 1 495",
        "Satellite Number": 495,
        "Semi-Major Axis(m)": 7083131.272910544,
        "Time(s)": 147
    },
    {
        "Altitude(m)": 704507.4382171658,
        "Argument of Periapsis(deg)": 0.008872304924320031,
        "Eccentricity": 0.0,
        "Inclination(deg)": 45.0,
        "Latitude(deg)": -6.442102450732123,
        "Longitude(deg)": -164.14781053266174,
        "Mean Anomaly(deg)": 188.98376875698506,
        "RAAN(deg)": 109.99162480349571,
        "Satellite Name": "Constellation 1 495",
        "Satellite Number": 495,
        "Semi-Major Axis(m)": 7083131.272910544,
        "Time(s)": 148
    },
    {
        "Altitude(m)": 704516.0143898991,
        "Argument of Periapsis(deg)": 0.008932252930565437,
        "Eccentricity": 0.0,
        "Inclination(deg)": 45.0,
        "Latitude(deg)": -6.4850259300704005,
        "Longitude(deg)": -164.10852732853547,
        "Mean Anomaly(deg)": 189.04446989723493,
        "RAAN(deg)": 109.99156821433014,
        "Satellite Name": "Constellation 1 495",
        "Satellite Number": 495,
        "Semi-Major Axis(m)": 7083131.272910544,
        "Time(s)": 149
    },
    {
        "Altitude(m)": 704524.6091945252,
        "Argument of Periapsis(deg)": 0.008992200936810843,
        "Eccentricity": 0.0,
        "Inclination(deg)": 45.0,
        "Latitude(deg)": -6.527945541921109,
        "Longitude(deg)": -164.0692368715734,
        "Mean Anomaly(deg)": 189.10517103748492,
        "RAAN(deg)": 109.99151162516456,
        "Satellite Name": "Constellation 1 495",
        "Satellite Number": 495,
        "Semi-Major Axis(m)": 7083131.272910544,
        "Time(s)": 150
    },
    {
        "Altitude(m)": 704533.2226108517,
        "Argument of Periapsis(deg)": 0.009052148943056249,
        "Eccentricity": 0.0,
        "Inclination(deg)": 45.0,
        "Latitude(deg)": -6.5708612603553584,
        "Longitude(deg)": -164.02993911232187,
        "Mean Anomaly(deg)": 189.1658721777348,
        "RAAN(deg)": 109.99145503599901,
        "Satellite Name": "Constellation 1 495",
        "Satellite Number": 495,
        "Semi-Major Axis(m)": 7083131.272910544,
        "Time(s)": 151
    }
]